GLOBALSTAR M094         
1 39074U 13005C   24300.90057104 -.00000074  00000+0  16718-3 0  9994
2 39074  51.9941 172.4062 0001148  87.6342 272.4656 12.62264402542934
GLOBALSTAR M096         
1 39075U 13005D   24300.91372013 -.00000093  00000+0  58500-4 0  9992
2 39075  52.0065 220.6973 0001013  75.1931 284.9048 12.62263268541838
GLOBALSTAR M078         
1 39076U 13005E   24301.12448945 -.00000072  00000+0  17803-3 0  9992
2 39076  51.9877 304.8809 0001253  38.2589 321.8366 12.62276706540694
GLOBALSTAR M095         
1 39077U 13005F   24300.91380303 -.00000065  00000+0  21555-3 0  9993
2 39077  51.9802 302.8382 0000986  64.3569 295.7399 12.62266926540314
GLOBALSTAR M087         
1 52888U 22064A   24301.14325557 -.00000077  00000+0  97018-4 0  9990
2 52888  51.9741 108.2485 0009021 344.7149  15.3478 13.37591097115181
